{
    "links": {
        "self": "http://www.neowsapp.com/rest/v1/neo/3819560?api_key=iIulBulltgU6a56xZRHN4H3l9WmuAYTsLGpBGhQ2"
    },
    "id": "3819560",
    "neo_reference_id": "3819560",
    "name": "(2018 HY1)",
    "designation": "2018 HY1",
    "nasa_jpl_url": "http://ssd.jpl.nasa.gov/sbdb.cgi?sstr=3819560",
    "absolute_magnitude_h": 25.3,
    "estimated_diameter": {
        "kilometers": {
            "estimated_diameter_min": 0.0231502122,
            "estimated_diameter_max": 0.0517654482
        },
        "meters": {
            "estimated_diameter_min": 23.150212221,
            "estimated_diameter_max": 51.7654482198
        },
        "miles": {
            "estimated_diameter_min": 0.0143848705,
            "estimated_diameter_max": 0.0321655483
        },
        "feet": {
            "estimated_diameter_min": 75.9521422633,
            "estimated_diameter_max": 169.8341531374
        }
    },
    "is_potentially_hazardous_asteroid": false,
    "close_approach_data": [
        {
            "close_approach_date": "1943-06-05",
            "close_approach_date_full": "1943-Jun-05 06:30",
            "epoch_date_close_approach": -838661400000,
            "relative_velocity": {
                "kilometers_per_second": "17.1132049605",
                "kilometers_per_hour": "61607.537857656",
                "miles_per_hour": "38280.528176053"
            },
            "miss_distance": {
                "astronomical": "0.3479347875",
                "lunar": "135.3466323375",
                "kilometers": "52050303.108902625",
                "miles": "32342558.607501225"
            },
            "orbiting_body": "Earth"
        },
        {
            "close_approach_date": "2018-04-23",
            "close_approach_date_full": "2018-Apr-23 18:09",
            "epoch_date_close_approach": 1524506940000,
            "relative_velocity": {
                "kilometers_per_second": "7.6420090748",
                "kilometers_per_hour": "27511.2326693589",
                "miles_per_hour": "17094.4100994692"
            },
            "miss_distance": {
                "astronomical": "0.0243896769",
                "lunar": "9.4875843141",
                "kilometers": "3648643.714228203",
                "miles": "2267162.0743190814"
            },
            "orbiting_body": "Earth"
        }
    ],
    "orbital_data": {
        "orbit_id": "5",
        "orbit_determination_date": "2019-08-08 05:55:29",
        "first_observation_date": "2018-04-23",
        "last_observation_date": "2018-04-26",
        "data_arc_in_days": 3,
        "observations_used": 57,
        "orbit_uncertainty": "7",
        "minimum_orbit_intersection": ".0246748",
        "jupiter_tisserand_invariant": "3.644",
        "epoch_osculation": "2459000.5",
        "eccentricity": ".4933269166119792",
        "semi_major_axis": "2.026762674946202",
        "inclination": "7.439690095285971",
        "ascending_node_longitude": "33.95658861109847",
        "orbital_period": "1053.908175283817",
        "perihelion_distance": "1.026906093810745",
        "perihelion_argument": "170.7174980893559",
        "aphelion_distance": "3.026619256081659",
        "perihelion_time": "2459278.732450737119",
        "mean_anomaly": "264.9597634647925",
        "mean_motion": ".3415857362554875",
        "equinox": "J2000",
        "orbit_class": {
            "orbit_class_type": "AMO",
            "orbit_class_description": "Near-Earth asteroid orbits similar to that of 1221 Amor",
            "orbit_class_range": "1.017 AU < q (perihelion) < 1.3 AU"
        }
    },
    "is_sentry_object": false
}